STARLINK-31685          
1 59578U 24076Q   26068.21099489 -.00001944  00000+0 -61184-4 0  9990
2 59578  43.0015  11.3381 0000191 282.1997  77.8834 15.27574062106435
LIZZIESAT-2 (LS-2)      
1 62383U 24247G   26068.49140277  .00009388  00000+0  34517-3 0  9997
2 62383  44.9909 117.0823 0004092 327.5136  32.5495 15.28222796 67716
